{
  "type": "FeatureCollection",
  "features": [
    {
      "type": "Feature",
      "properties": {
        "norad_id": 24946,
        "name": "IRIDIUM 33",
        "group": "iridium-33-debris",
        "lat": -57.314886277347426,
        "lon": -103.8496382894487,
        "alt_km": 777.731055915553,
        "timestamp": "2025-12-07T07:31:36.682886+00:00",
        "meta_object_name": "IRIDIUM 33",
        "meta_object_id": "1997-051C",
        "meta_epoch": "2025-12-06T20:22:57.411840",
        "meta_mean_motion": 14.35030785,
        "meta_eccentricity": 0.00064142,
        "meta_inclination": 86.387,
        "meta_ra_of_asc_node": 70.6939,
        "meta_arg_of_pericenter": 222.6538,
        "meta_mean_anomaly": 137.4161,
        "meta_ephemeris_type": 0,
        "meta_classification_type": "U",
        "meta_norad_cat_id": 24946,
        "meta_element_set_no": 999,
        "meta_rev_at_epoch": 47750,
        "meta_bstar": 0.0002262514,
        "meta_mean_motion_dot": 6.64e-06,
        "meta_mean_motion_ddot": 0,
        "tle_line1": "1 24946U 97051C   25340.84927560  .00000664  00000+0  22625-3 0  9997",
        "tle_line2": "2 24946  86.3870  70.6939 0006414 222.6538 137.4161 14.35030785477508"
      },
      "geometry": {
        "type": "Point",
        "coordinates": [
          -103.8496382894487,
          -57.314886277347426
        ]
      }
    },
    {
      "type": "Feature",
      "properties": {
        "norad_id": 33773,
        "name": "IRIDIUM 33 DEB",
        "group": "iridium-33-debris",
        "lat": 33.9146252412256,
        "lon": 65.3135825961293,
        "alt_km": 751.0147182873152,
        "timestamp": "2025-12-07T07:31:36.682912+00:00",
        "meta_object_name": "IRIDIUM 33 DEB",
        "meta_object_id": "1997-051L",
        "meta_epoch": "2025-12-06T18:03:27.537120",
        "meta_mean_motion": 14.43237829,
        "meta_eccentricity": 0.00119174,
        "meta_inclination": 86.4017,
        "meta_ra_of_asc_node": 63.1265,
        "meta_arg_of_pericenter": 164.3697,
        "meta_mean_anomaly": 195.7874,
        "meta_ephemeris_type": 0,
        "meta_classification_type": "U",
        "meta_norad_cat_id": 33773,
        "meta_element_set_no": 999,
        "meta_rev_at_epoch": 88261,
        "meta_bstar": 0.00067753631,
        "meta_mean_motion_dot": 2.3e-05,
        "meta_mean_motion_ddot": 0,
        "tle_line1": "1 33773U 97051L   25340.75240205  .00002300  00000+0  67754-3 0  9990",
        "tle_line2": "2 33773  86.4017  63.1265 0011917 164.3697 195.7874 14.43237829882618"
      },
      "geometry": {
        "type": "Point",
        "coordinates": [
          65.3135825961293,
          33.9146252412256
        ]
      }
    },
    {
      "type": "Feature",
      "properties": {
        "norad_id": 33775,
        "name": "IRIDIUM 33 DEB",
        "group": "iridium-33-debris",
        "lat": 27.317661901704298,
        "lon": -130.01224224205475,
        "alt_km": 743.4994323812998,
        "timestamp": "2025-12-07T07:31:36.682926+00:00",
        "meta_object_name": "IRIDIUM 33 DEB",
        "meta_object_id": "1997-051N",
        "meta_epoch": "2025-12-06T23:03:51.104160",
        "meta_mean_motion": 14.41448889,
        "meta_eccentricity": 0.0013629,
        "meta_inclination": 86.3642,
        "meta_ra_of_asc_node": 52.0203,
        "meta_arg_of_pericenter": 172.757,
        "meta_mean_anomaly": 311.204,
        "meta_ephemeris_type": 0,
        "meta_classification_type": "U",
        "meta_norad_cat_id": 33775,
        "meta_element_set_no": 999,
        "meta_rev_at_epoch": 88057,
        "meta_bstar": 0.00060366825,
        "meta_mean_motion_dot": 1.979e-05,
        "meta_mean_motion_ddot": 0,
        "tle_line1": "1 33775U 97051N   25340.96100815  .00001979  00000+0  60367-3 0  9991",
        "tle_line2": "2 33775  86.3642  52.0203 0013629 172.7570 311.2040 14.41448889880578"
      },
      "geometry": {
        "type": "Point",
        "coordinates": [
          -130.01224224205475,
          27.317661901704298
        ]
      }
    },
    {
      "type": "Feature",
      "properties": {
        "norad_id": 33776,
        "name": "IRIDIUM 33 DEB",
        "group": "iridium-33-debris",
        "lat": 83.98296744435075,
        "lon": 119.68633319179864,
        "alt_km": 762.3834969346344,
        "timestamp": "2025-12-07T07:31:36.682939+00:00",
        "meta_object_name": "IRIDIUM 33 DEB",
        "meta_object_id": "1997-051P",
        "meta_epoch": "2025-12-06T20:01:49.234368",
        "meta_mean_motion": 14.3821751,
        "meta_eccentricity": 0.00136844,
        "meta_inclination": 86.4036,
        "meta_ra_of_asc_node": 83.2554,
        "meta_arg_of_pericenter": 210.5167,
        "meta_mean_anomaly": 276.1963,
        "meta_ephemeris_type": 0,
        "meta_classification_type": "U",
        "meta_norad_cat_id": 33776,
        "meta_element_set_no": 999,
        "meta_rev_at_epoch": 87997,
        "meta_bstar": 0.00058665193,
        "meta_mean_motion_dot": 1.802e-05,
        "meta_mean_motion_ddot": 0,
        "tle_line1": "1 33776U 97051P   25340.83459762  .00001802  00000+0  58665-3 0  9999",
        "tle_line2": "2 33776  86.4036  83.2554 0013684 210.5167 276.1963 14.38217510879972"
      },
      "geometry": {
        "type": "Point",
        "coordinates": [
          119.68633319179864,
          83.98296744435075
        ]
      }
    },
    {
      "type": "Feature",
      "properties": {
        "norad_id": 33777,
        "name": "IRIDIUM 33 DEB",
        "group": "iridium-33-debris",
        "lat": -74.09303715874294,
        "lon": -129.5967424684505,
        "alt_km": 711.5880600408063,
        "timestamp": "2025-12-07T07:31:36.682951+00:00",
        "meta_object_name": "IRIDIUM 33 DEB",
        "meta_object_id": "1997-051Q",
        "meta_epoch": "2025-12-06T22:06:40.267296",
        "meta_mean_motion": 14.55548471,
        "meta_eccentricity": 0.0005113,
        "meta_inclination": 86.3787,
        "meta_ra_of_asc_node": 37.7345,
        "meta_arg_of_pericenter": 276.5659,
        "meta_mean_anomaly": 83.4966,
        "meta_ephemeris_type": 0,
        "meta_classification_type": "U",
        "meta_norad_cat_id": 33777,
        "meta_element_set_no": 999,
        "meta_rev_at_epoch": 88449,
        "meta_bstar": 0.0014973212,
        "meta_mean_motion_dot": 6.544e-05,
        "meta_mean_motion_ddot": 0,
        "tle_line1": "1 33777U 97051Q   25340.92129939  .00006544  00000+0  14973-2 0  9991",
        "tle_line2": "2 33777  86.3787  37.7345 0005113 276.5659  83.4966 14.55548471884490"
      },
      "geometry": {
        "type": "Point",
        "coordinates": [
          -129.5967424684505,
          -74.09303715874294
        ]
      }
    },
    {
      "type": "Feature",
      "properties": {
        "norad_id": 33850,
        "name": "IRIDIUM 33 DEB",
        "group": "iridium-33-debris",
        "lat": 59.615831392634114,
        "lon": -153.75078343834477,
        "alt_km": 741.3270669846961,
        "timestamp": "2025-12-07T07:31:36.682962+00:00",
        "meta_object_name": "IRIDIUM 33 DEB",
        "meta_object_id": "1997-051T",
        "meta_epoch": "2025-12-06T16:32:43.404000",
        "meta_mean_motion": 14.42128154,
        "meta_eccentricity": 0.00116272,
        "meta_inclination": 86.3421,
        "meta_ra_of_asc_node": 32.7812,
        "meta_arg_of_pericenter": 179.7696,
        "meta_mean_anomaly": 301.7513,
        "meta_ephemeris_type": 0,
        "meta_classification_type": "U",
        "meta_norad_cat_id": 33850,
        "meta_element_set_no": 999,
        "meta_rev_at_epoch": 88065,
        "meta_bstar": 0.00070449325,
        "meta_mean_motion_dot": 2.337e-05,
        "meta_mean_motion_ddot": 0,
        "tle_line1": "1 33850U 97051T   25340.68939125  .00002337  00000+0  70449-3 0  9999",
        "tle_line2": "2 33850  86.3421  32.7812 0011627 179.7696 301.7513 14.42128154880659"
      },
      "geometry": {
        "type": "Point",
        "coordinates": [
          -153.75078343834477,
          59.615831392634114
        ]
      }
    },
    {
      "type": "Feature",
      "properties": {
        "norad_id": 33853,
        "name": "IRIDIUM 33 DEB",
        "group": "iridium-33-debris",
        "lat": -83.16675408145196,
        "lon": -152.08194088666846,
        "alt_km": 757.2274436979515,
        "timestamp": "2025-12-07T07:31:36.682975+00:00",
        "meta_object_name": "IRIDIUM 33 DEB",
        "meta_object_id": "1997-051W",
        "meta_epoch": "2025-12-06T19:06:19.087200",
        "meta_mean_motion": 13.99006753,
        "meta_eccentricity": 0.02068367,
        "meta_inclination": 85.9999,
        "meta_ra_of_asc_node": 352.4179,
        "meta_arg_of_pericenter": 254.2071,
        "meta_mean_anomaly": 284.6651,
        "meta_ephemeris_type": 0,
        "meta_classification_type": "U",
        "meta_norad_cat_id": 33853,
        "meta_element_set_no": 999,
        "meta_rev_at_epoch": 85262,
        "meta_bstar": 0.0035731103,
        "meta_mean_motion_dot": 6.218e-05,
        "meta_mean_motion_ddot": 0,
        "tle_line1": "1 33853U 97051W   25340.79605425  .00006218  00000+0  35731-2 0  9993",
        "tle_line2": "2 33853  85.9999 352.4179 0206836 254.2071 284.6651 13.99006753852628"
      },
      "geometry": {
        "type": "Point",
        "coordinates": [
          -152.08194088666846,
          -83.16675408145196
        ]
      }
    }
  ]
}